OBJECT_NAME,OBJECT_ID,EPOCH,MEAN_MOTION,ECCENTRICITY,INCLINATION,RA_OF_ASC_NODE,ARG_OF_PERICENTER,MEAN_ANOMALY,EPHEMERIS_TYPE,CLASSIFICATION_TYPE,NORAD_CAT_ID,ELEMENT_SET_NO,REV_AT_EPOCH,BSTAR,MEAN_MOTION_DOT,MEAN_MOTION_DDOT
ONEWEB-0679,2023-068F,2024-07-08T04:51:20.848896,13.16592267,.0001954,87.9096,9.9342,112.2982,247.8356,0,U,56715,999,5913,.52832E-4,.33E-6,0
ONEWEB-0680,2023-068G,2024-07-07T14:16:31.957248,13.21828313,.0001188,87.9276,25.2751,108.8433,251.2830,0,U,56716,999,5735,.93668E-4,.52E-6,0
ONEWEB-0681,2023-068H,2024-07-07T21:47:19.590432,13.21826739,.0002997,87.9275,25.1925,95.4973,264.6503,0,U,56717,999,5808,-.17169E-3,-.58E-6,0
ONEWEB-0682,2023-068J,2024-07-07T15:32:07.872576,13.15551049,.0001462,87.9023,40.4032,101.7146,258.4149,0,U,56718,999,5686,.48992E-3,.197E-5,0
ONEWEB-0683,2023-068K,2024-07-07T14:13:24.151296,13.15548206,.0001586,87.9023,40.3866,92.3209,267.8103,0,U,56719,999,5612,-.46344E-3,-.162E-5,0
ONEWEB-0684,2023-068L,2024-07-07T14:24:48.697632,13.15546698,.0002347,87.9025,40.4615,43.1681,316.9633,0,U,56720,999,5595,.66381E-4,.38E-6,0
ONEWEB-0686,2023-068M,2024-07-07T12:11:36.666528,13.16592778,.0001692,87.9095,10.1089,85.8682,274.2642,0,U,56721,999,5903,.13099E-3,.63E-6,0
ONEWEB-0694,2023-068N,2024-07-07T13:02:57.045120,13.16595255,.0001567,87.9093,10.0206,103.9306,256.1999,0,U,56722,999,5909,-.30683E-4,.1E-7,0
ONEWEB-0696,2023-068P,2024-07-07T11:33:41.911776,13.15547343,.000205,87.9021,40.4592,80.5139,279.6223,0,U,56723,999,5605,.16274E-3,.74E-6,0
ONEWEB-0703,2023-068Q,2024-07-07T15:26:25.273248,13.15547681,.0002964,87.9022,40.4478,72.2833,287.8620,0,U,56724,999,5666,-.29073E-3,-.97E-6,0
ONEWEB-0721,2023-068R,2024-07-07T20:49:31.598976,14.85296495,.0010279,86.6787,327.4319,185.4619,174.6495,0,U,56725,999,6227,.39042E-3,.3381E-4,0
