ONEWEB-0679             
1 56715U 23068F   24190.20232464  .00000033  00000+0  52832-4 0  9991
2 56715  87.9096   9.9342 0001954 112.2982 247.8356 13.16592267 59131
ONEWEB-0680             
1 56716U 23068G   24189.59481432  .00000052  00000+0  93668-4 0  9996
2 56716  87.9276  25.2751 0001188 108.8433 251.2830 13.21828313 57356
ONEWEB-0681             
1 56717U 23068H   24189.90786563 -.00000058  00000+0 -17169-3 0  9994
2 56717  87.9275  25.1925 0002997  95.4973 264.6503 13.21826739 58083
ONEWEB-0682             
1 56718U 23068J   24189.64731334  .00000197  00000+0  48992-3 0  9992
2 56718  87.9023  40.4032 0001462 101.7146 258.4149 13.15551049 56866
ONEWEB-0683             
1 56719U 23068K   24189.59264064 -.00000162  00000+0 -46344-3 0  9991
2 56719  87.9023  40.3866 0001586  92.3209 267.8103 13.15548206 56127
ONEWEB-0684             
1 56720U 23068L   24189.60056363  .00000038  00000+0  66381-4 0  9990
2 56720  87.9025  40.4615 0002347  43.1681 316.9633 13.15546698 55955
ONEWEB-0686             
1 56721U 23068M   24189.50806327  .00000063  00000+0  13099-3 0  9998
2 56721  87.9095  10.1089 0001692  85.8682 274.2642 13.16592778 59038
ONEWEB-0694             
1 56722U 23068N   24189.54371580  .00000001  00000+0 -30683-4 0  9993
2 56722  87.9093  10.0206 0001567 103.9306 256.1999 13.16595255 59096
ONEWEB-0696             
1 56723U 23068P   24189.48173509  .00000074  00000+0  16274-3 0  9996
2 56723  87.9021  40.4592 0002050  80.5139 279.6223 13.15547343 56052
ONEWEB-0703             
1 56724U 23068Q   24189.64334807 -.00000097  00000+0 -29073-3 0  9993
2 56724  87.9022  40.4478 0002964  72.2833 287.8620 13.15547681 56664
ONEWEB-0721             
1 56725U 23068R   24189.86772684  .00003381  00000+0  39042-3 0  9991
2 56725  86.6787 327.4319 0010279 185.4619 174.6495 14.85296495 62277
